RANGE-A                 
1 43773U 18099R   26068.70590171  .00005536  00000+0  32166-3 0  9992
2 43773  97.4107 114.1927 0009674 340.4473  19.6386 15.12458640397457
STARLINK-3305           
1 50166U 21125L   26068.70735809 -.00003186  00000+0 -18218-3 0  9992
2 50166  53.2167 248.9744 0001098  91.5670 268.5448 15.08841386236594
